[{"OBJECT_NAME":"OBJECT C","OBJECT_ID":"2024-092C","EPOCH":"2026-03-09T23:10:26.961312","MEAN_MOTION":15.27308901,"ECCENTRICITY":0.00097974,"INCLINATION":97.6475,"RA_OF_ASC_NODE":197.1606,"ARG_OF_PERICENTER":169.1353,"MEAN_ANOMALY":191.0098,"EPHEMERIS_TYPE":0,"CLASSIFICATION_TYPE":"U","NORAD_CAT_ID":59775,"ELEMENT_SET_NO":999,"REV_AT_EPOCH":10042,"BSTAR":0.00057925748,"MEAN_MOTION_DOT":0.00015454,"MEAN_MOTION_DDOT":0},{"OBJECT_NAME":"STARLINK-32526","OBJECT_ID":"2024-224Z","EPOCH":"2026-03-08T08:05:01.940928","MEAN_MOTION":15.27595722,"ECCENTRICITY":6.467e-5,"INCLINATION":43.0003,"RA_OF_ASC_NODE":169.1623,"ARG_OF_PERICENTER":192.8107,"MEAN_ANOMALY":167.2729,"EPHEMERIS_TYPE":0,"CLASSIFICATION_TYPE":"U","NORAD_CAT_ID":62162,"ELEMENT_SET_NO":999,"REV_AT_EPOCH":7222,"BSTAR":0.0017346028,"MEAN_MOTION_DOT":0.00047803,"MEAN_MOTION_DDOT":0}]
